[{"OBJECT_NAME":"LEMUR-2-MARIO-SOUSA","OBJECT_ID":"2026-004C","EPOCH":"2026-03-09T22:28:14.080512","MEAN_MOTION":14.87588153,"ECCENTRICITY":0.00102095,"INCLINATION":97.8003,"RA_OF_ASC_NODE":69.0866,"ARG_OF_PERICENTER":105.1943,"MEAN_ANOMALY":255.0403,"EPHEMERIS_TYPE":0,"CLASSIFICATION_TYPE":"U","NORAD_CAT_ID":67365,"ELEMENT_SET_NO":999,"REV_AT_EPOCH":853,"BSTAR":0.00075901318,"MEAN_MOTION_DOT":6.852e-5,"MEAN_MOTION_DDOT":0},{"OBJECT_NAME":"NOAA 17 DEB","OBJECT_ID":"2002-032AQ","EPOCH":"2026-03-09T15:51:58.323744","MEAN_MOTION":14.77923076,"ECCENTRICITY":0.00357104,"INCLINATION":98.773,"RA_OF_ASC_NODE":129.0093,"ARG_OF_PERICENTER":247.3123,"MEAN_ANOMALY":112.4308,"EPHEMERIS_TYPE":0,"CLASSIFICATION_TYPE":"U","NORAD_CAT_ID":48707,"ELEMENT_SET_NO":999,"REV_AT_EPOCH":26417,"BSTAR":0.0019908705,"MEAN_MOTION_DOT":0.00014456,"MEAN_MOTION_DDOT":0}]
